OBJECT_NAME,OBJECT_ID,EPOCH,MEAN_MOTION,ECCENTRICITY,INCLINATION,RA_OF_ASC_NODE,ARG_OF_PERICENTER,MEAN_ANOMALY,EPHEMERIS_TYPE,CLASSIFICATION_TYPE,NORAD_CAT_ID,ELEMENT_SET_NO,REV_AT_EPOCH,BSTAR,MEAN_MOTION_DOT,MEAN_MOTION_DDOT
RADFXSAT (FOX-1B),2017-073E,2026-06-19T14:08:32.260992,15.12745467,.01493691,97.4695,37.7543,320.8671,38.1830,0,U,43017,999,46575,.27795465E-3,.6334E-4,0
JILIN-1 04,2017-074A,2026-06-19T13:14:02.245632,15.42490999,.00043579,97.4861,280.2269,170.8547,189.2781,0,U,43022,999,47463,.25506265E-3,.10968E-3,0
JILIN-1 05,2017-074B,2026-06-19T12:50:16.359648,15.33906729,.00045728,97.4867,276.7208,204.8856,155.2166,0,U,43023,999,47436,.20757888E-3,.6728E-4,0
JILIN-1 06,2017-074C,2026-06-19T13:43:42.937536,15.33715946,.00058827,97.4793,273.7651,220.7487,139.3316,0,U,43024,999,47420,.15883257E-3,.5098E-4,0
IRIDIUM 116,2017-083C,2026-06-19T09:04:03.155520,14.34217411,.00019119,86.3961,321.0854,100.1064,260.0348,0,U,43072,999,44448,-.10797083E-4,-.1E-6,0
IRIDIUM 130,2017-083D,2026-06-19T11:39:18.697248,14.34219744,.0001947,86.3974,321.3155,93.5195,266.6223,0,U,43073,999,44444,.56353709E-4,.178E-5,0
LKW-2,2017-084A,2026-06-19T14:02:47.163840,15.26366933,.00013816,97.1184,210.2696,171.0575,189.0690,0,U,43080,999,47205,.26223427E-3,.675E-4,0
SUPERVIEW-1 03,2018-002A,2026-06-19T13:42:19.818144,15.39323605,.00473272,97.3130,255.4050,171.0345,189.1757,0,U,43099,999,46873,.36313415E-3,.14658E-3,0
CARTOSAT-2F,2018-004A,2026-06-19T15:29:28.353984,15.19232306,.00009474,97.4779,230.2569,195.9787,164.1417,0,U,43111,999,46770,.24653682E-3,.5125E-4,0
LKW-3,2018-006A,2026-06-19T14:17:53.797056,15.35289060,.00018827,97.6619,331.2635,309.8802,50.2275,0,U,43146,999,46908,.28644239E-3,.9732E-4,0
ASNARO-2,2018-007A,2026-06-19T14:49:54.229728,15.22401135,.0001826,97.3974,177.5074,91.1143,269.0303,0,U,43152,999,46778,.31920894E-3,.7307E-4,0
JILIN-1 07,2018-008E,2026-06-19T13:41:37.210848,15.34756192,.0009713,97.1769,190.4356,58.3316,301.8874,0,U,43159,999,46536,.22000569E-3,.7346E-4,0
JILIN-1 08,2018-008F,2026-06-19T13:44:13.399584,15.33736293,.0007936,97.1802,189.7514,73.7133,286.4982,0,U,43160,999,46531,.15546081E-3,.4999E-4,0
S-NET D,2018-014G,2026-06-19T07:25:13.706688,15.16689248,.00087344,97.5357,75.0865,23.7498,336.4137,0,U,43186,999,45908,.19621155E-3,.3778E-4,0
S-NET B,2018-014H,2026-06-19T10:51:47.533536,15.16660903,.00092345,97.5363,75.2156,18.1843,341.9719,0,U,43187,999,45910,.19810472E-3,.3812E-4,0
S-NET A,2018-014J,2026-06-19T07:23:35.752416,15.16697493,.0009104,97.5374,75.2812,19.2702,340.8874,0,U,43188,999,45908,.20267414E-3,.3906E-4,0
S-NET C,2018-014K,2026-06-19T14:07:24.147552,15.16653747,.00102084,97.5391,75.6349,9.9482,350.1951,0,U,43189,999,45767,.19344709E-3,.3721E-4,0
PAZ,2018-020A,2026-06-19T14:38:24.138240,15.19144044,.00017264,97.4453,177.9613,87.5365,272.6067,0,U,43215,999,46137,.68807589E-4,.1378E-4,0
GOES 17,2018-022A,2026-06-19T12:27:02.191104,1.00269516,.00005442,0.9441,85.6659,28.2288,251.0785,0,U,43226,999,3044,0,-.188E-5,0
LKW-4,2018-025A,2026-06-19T10:46:43.599936,15.62427153,.00019694,97.6350,341.4996,279.1806,80.9229,0,U,43236,999,46038,.44208914E-3,.39199E-3,0
ZHUHAI-1 OVS-02,2018-040B,2026-06-19T14:14:50.311104,15.25051305,.00019693,97.0387,187.6807,219.4959,140.6137,0,U,43440,999,45308,.24412763E-3,.6035E-4,0
ZHUHAI-1 OHS-02,2018-040C,2026-06-19T15:25:51.198816,15.25910239,.0008351,97.0370,194.6691,210.1516,149.9244,0,U,43441,999,11465,.23923125E-3,.6073E-4,0
GAOFEN-6,2018-048A,2026-06-19T15:30:30.708000,14.76599772,.00117862,97.9705,233.3622,157.7969,202.3754,0,U,43484,999,43375,.396292E-5,-.24E-6,0
LUOJIA-1 01,2018-048B,2026-06-19T14:18:35.039232,14.87294260,.00103656,97.8103,248.7457,109.9531,250.2802,0,U,43485,999,43457,.19329346E-3,.1691E-4,0
PAKTES 1A,2018-056A,2026-06-19T14:35:17.905632,14.99111966,.00219787,98.1305,327.1982,98.6046,261.7667,0,U,43529,999,43228,.10261829E-3,.1187E-4,0
PRSS-1,2018-056B,2026-06-19T14:53:32.577216,14.81994037,.00016064,97.7817,238.4233,77.3911,282.7482,0,U,43530,999,42879,.16981988E-3,.1296E-4,0
HAIYANG-1C,2018-068A,2026-06-19T14:48:36.050688,14.34180361,.00121238,98.5188,242.8904,87.9541,272.3033,0,U,43609,999,40743,.11426399E-3,.277E-5,0
SSTL S1-4,2018-071A,2026-06-19T15:06:44.434080,14.96180237,.00012683,97.5019,42.1423,110.6368,249.4990,0,U,43618,999,42330,.11478819E-4,.75E-6,0
HAIYANG-2B,2018-081A,2026-06-19T15:06:13.525344,13.79307669,.00002951,99.3282,179.3490,2.8128,357.3025,0,U,43655,999,38526,.17413242E-3,.135E-5,0
CZ-4B R/B,2018-081B,2026-06-19T11:47:06.816768,14.31866539,.02037383,99.3678,88.6004,260.1058,97.7070,0,U,43656,999,39963,.33335052E-4,.52E-6,0
CFOSAT,2018-083A,2026-06-19T14:25:58.319616,15.16386756,.00024043,97.3605,175.0609,89.4813,270.6696,0,U,43662,999,42280,.12826711E-3,.2426E-4,0
TEN-KOH,2018-084G,2026-06-19T12:29:28.569984,15.02949767,.00115148,98.0771,2.9828,107.4797,252.7687,0,U,43677,999,41651,.10646057E-3,.1365E-4,0
DIWATA-2B,2018-084H,2026-06-19T13:41:42.357696,15.00460714,.00127336,98.1184,6.8817,162.5432,197.6231,0,U,43678,999,41657,.14199326E-3,.1724E-4,0
STARS-AO,2018-084J,2026-06-19T13:55:10.881120,15.17074017,.00030339,98.0497,24.6984,131.9417,228.2074,0,U,43679,999,41783,.22217157E-3,.4324E-4,0
AUTCUBE 2,2018-084K,2026-06-19T06:49:41.704608,15.10102080,.00099013,98.0708,16.5700,43.1941,317.0062,0,U,43681,999,41724,.15440469E-3,.2446E-4,0
METOP-C,2018-087A,2026-06-19T12:45:30.729024,14.21512682,.00018459,98.6644,230.0924,126.4901,233.6447,0,U,43689,999,39516,.5221977E-4,.71E-6,0
ES'HAIL 2,2018-090A,2026-06-19T12:59:59.031744,1.00272001,.0001759,0.0127,51.8972,72.3955,4.2456,0,U,43700,999,2770,0,.138E-5,0
MOHAMMED VI-B,2018-095A,2026-06-19T14:46:21.648576,14.77119930,.00013651,97.9554,242.9080,99.4151,260.7213,0,U,43717,999,40854,.73588666E-4,.469E-5,0
HYSIS,2018-096A,2026-06-19T15:32:34.884672,14.78619847,.0001771,97.9835,237.3768,96.7186,263.4226,0,U,43719,999,40778,.4536767E-4,.28E-5,0
COSMOS 2530 (RODNIK-S 16),2018-097A,2026-06-19T15:08:09.242592,12.42881454,.00200833,82.5131,220.7645,34.5363,325.7017,0,U,43751,999,34259,.57699144E-4,.18E-6,0
COSMOS 2531 (RODNIK-S 17),2018-097B,2026-06-19T13:44:13.887744,12.42913126,.00176022,82.5174,221.8598,53.4622,306.8075,0,U,43752,999,34260,-.13786105E-1,-.19E-4,0
COSMOS 2532 (RODNIK-S 18),2018-097C,2026-06-19T14:24:57.342816,12.42909923,.0019044,82.5120,220.6272,55.2260,305.0609,0,U,43753,999,34257,-.20714798E-3,-.19E-6,0
MINXSS-2,2018-099A,2026-06-19T11:38:35.796192,15.47028167,.00068381,97.4528,246.8370,245.1261,114.9278,0,U,43758,999,41448,.6501867E-3,.32882E-3,0
SIRION PATHFINDER-2,2018-099B,2026-06-19T13:26:41.343072,15.14564980,.00071567,97.4247,219.5613,294.5243,65.5242,0,U,43759,999,41298,.22261507E-3,.4043E-4,0
AISTECHSAT 2,2018-099L,2026-06-19T14:21:12.584448,15.15469715,.0003043,97.4289,218.5794,297.7742,62.3182,0,U,43768,999,41264,.23293885E-3,.4342E-4,0
FOX-1CLIFF (AO-95),2018-099N,2026-06-19T10:29:32.345952,15.26751310,.00077367,97.4377,230.6751,349.3383,10.7690,0,U,43770,999,41356,.36924556E-3,.9649E-4,0
2018-099Q,2018-099Q,2026-06-19T11:37:28.071552,15.95323997,.00110879,97.4105,252.2524,252.4909,107.5156,0,U,43772,999,41503,.14539269E-2,.571666E-2,.13713494E-3
RANGE-A,2018-099R,2026-06-19T13:23:55.502592,15.13404816,.00095655,97.3959,213.0682,348.6491,11.4524,0,U,43773,999,41285,.18121289E-3,.3174E-4,0
SNUSAT-2,2018-099AA,2026-06-19T02:36:23.083200,15.21860979,.00085565,97.4055,223.4630,290.4235,69.6082,0,U,43782,999,41332,.28361379E-3,.6386E-4,0
SNUGLITE,2018-099AC,2026-06-19T02:37:26.073120,15.27212758,.00011847,97.3860,224.3705,273.7878,86.3226,0,U,43784,999,41361,.35226178E-3,.9325E-4,0
ITASAT,2018-099AE,2026-06-19T14:10:34.049568,15.19081555,.00118325,97.4023,222.0545,351.8035,8.3004,0,U,43786,999,41327,.23817328E-3,.4936E-4,0
EAGLET-I,2018-099AJ,2026-06-19T13:35:08.157696,15.12953638,.00104166,97.4228,220.1718,345.6948,14.3986,0,U,43790,999,41269,.18133892E-3,.3136E-4,0
ESEO,2018-099AL,2026-06-19T13:48:04.101408,15.04255906,.00110262,97.3977,207.8609,332.0490,28.0143,0,U,43792,999,41216,.10720093E-3,.1434E-4,0
THEA,2018-099AQ,2026-06-19T03:47:08.036160,15.35067493,.0005911,97.4436,239.8689,273.4514,86.6053,0,U,43796,999,41299,.41476996E-3,.14049E-3,0
ASTROCAST 0.1,2018-099AS,2026-06-19T10:57:58.791744,15.49669297,.00053032,97.4364,249.0252,196.8674,163.2402,0,U,43798,999,41478,.5848021E-3,.32401E-3,0
JY1SAT (JO-97),2018-099AX,2026-06-19T10:40:10.307136,15.33712469,.00044863,97.4126,233.2867,251.9162,108.1592,0,U,43803,999,41397,.45450799E-3,.14753E-3,0
SUOMI-100,2018-099AY,2026-06-19T02:30:58.945824,15.28450816,.00083716,97.4179,230.4911,270.6321,89.3959,0,U,43804,999,41371,.35417624E-3,.9746E-4,0
CENTAURI-1,2018-099BD,2026-06-19T09:12:30.488544,15.16383367,.00128514,97.4215,222.0565,325.5068,34.5330,0,U,43809,999,41283,.21041138E-3,.4027E-4,0
GLOBAL-2,2018-099BG,2026-06-19T01:33:01.077120,15.08679131,.00070273,97.3549,206.5001,137.6385,222.5388,0,U,43812,999,41219,.15908149E-3,.2434E-4,0
SEAHAWK-1,2018-099BQ,2026-06-19T02:34:54.730560,15.22832636,.00066427,97.3950,222.5638,307.1932,52.8698,0,U,43820,999,41282,.29330853E-3,.6798E-4,0
SAUDISAT 5A,2018-102A,2026-06-19T15:40:40.620288,15.28068929,.0011158,97.3062,232.1869,121.5243,238.7088,0,U,43831,999,41605,.16174225E-3,.4361E-4,0
SAUDISAT 5B,2018-102C,2026-06-19T14:32:56.133600,15.28324278,.00118318,97.3172,235.2148,123.8172,236.4196,0,U,43833,999,41616,.15528678E-3,.4218E-4,0
2018-102D,2018-102D,2026-06-19T15:25:10.786080,15.67633082,.00024432,97.3431,259.9027,73.9615,286.1915,0,U,43834,999,41763,.59693669E-3,.65308E-3,0
ISAT,2018-111D,2026-06-19T06:31:09.688224,15.65612407,.00014506,97.5873,105.6536,154.5735,205.5596,0,U,43879,999,41149,.87128438E-3,.88192E-3,0
UWE-4,2018-111E,2026-06-19T13:04:43.398336,15.46247682,.00050978,97.5851,99.0446,331.4843,28.6126,0,U,43880,999,41114,.56996961E-3,.28021E-3,0
